KUIPER-00136            
1 65962U 25228R   25362.83334491 -.01520831  00000+0 -97483-1 0  9993
2 65962  51.8876 304.2098 0006164  97.0614 172.1466 15.11427034  2518
KUIPER-00137            
1 65963U 25228S   25362.83334491 -.01012703  00000+0 -44839-1 0  9995
2 65963  51.8846 303.3591 0005879  89.2250 306.7219 15.23952124  3030
KUIPER-00138            
1 65964U 25228T   25362.83334491 -.00735209  00000+0 -25261-1 0  9996
2 65964  51.8793 303.0320 0007490  84.6167 102.1288 15.32188049  4487
KUIPER-00140            
1 65965U 25228U   25362.83334491 -.00971167  00000+0 -46033-1 0  9992
2 65965  51.8836 303.6778 0007548  73.3787 127.0016 15.21528641  5936
KUIPER-00141            
1 65966U 25228V   25362.83498615  .00949831  00000+0  22970-1 0  9997
2 65966  51.8803 302.6820 0007054 154.6031 205.5304 15.38256107 12893
KUIPER-00146            
1 65967U 25228W   25362.83334491  .00043711  00000+0  14811-2 0  9997
2 65967  51.8803 303.0240 0007425  85.7925  93.1476 15.30109259  4500
KUIPER-00149            
1 65968U 25228X   25362.57846258  .00046779  00000+0  12954-2 0  9991
2 65968  51.8790 303.9638 0005353  77.3152 282.8432 15.36501847 12854
KUIPER-00154            
1 65969U 25228Y   25362.45319588  .00032552  00000+0  90788-3 0  9996
2 65969  51.8791 304.6202 0006374  66.2437 293.9218 15.36445233 12837
